1 45228U 20012BC  22365.54710073  .00001438  00000-0  11544-3 0  9995
2 45228  53.0526 192.6648 0001463  63.0741 297.0397 15.06390565159827
1 45228U 20012BC  22365.81248768  .00001517  00000-0  12076-3 0  9991
2 45228  53.0528 191.4734 0001478  64.2098 295.9044 15.06393078159868
1 45228U 20012BC  23001.54230453  .00000787  00000-0  71746-4 0  9999
2 45228  53.0529 188.1971 0001501  65.0199 295.0946 15.06396337159978
1 45228U 20012BC  23001.80770078 -.00000520  00000-0 -16032-4 0  9994
2 45228  53.0527 187.0051 0001480  62.9905 297.1235 15.06387657160016
1 45228U 20012BC  23001.80770078 -.00000520  00000-0 -16032-4 0  9994
2 45228  53.0527 187.0051 0001480  62.9905 297.1235 15.06387657159182
1 45228U 20012BC  23002.47117080 -.00000497  00000-0 -14464-4 0  9996
2 45228  53.0527 184.0259 0001548  62.5360 297.5787 15.06390122160117
1 45228U 20012BC  23002.67020978 -.00000499  00000-0 -14619-4 0  9991
2 45228  53.0531 183.1329 0001564  64.2450 295.8701 15.06393150160141
1 45228U 20012BC  23003.20098275 -.00000021  00000-0  17519-4 0  9998
2 45228  53.0533 180.7499 0001607  64.7896 295.3259 15.06396766160229
1 45228U 20012BC  23003.20098275 -.00000021  00000-0  17519-4 0  9998
2 45228  53.0533 180.7499 0001607  64.7896 295.3259 15.06396766159395
1 45228U 20012BC  23004.46156801  .00001553  00000-0  12313-3 0  9993
2 45228  53.0530 175.0911 0001611  68.6438 291.4723 15.06400461160414
1 45228U 20012BC  23004.46156801  .00001553  00000-0  12313-3 0  9993
2 45228  53.0530 175.0911 0001611  68.6438 291.4723 15.06400461159580
1 45228U 20012BC  23004.72695076  .00002006  00000-0  15354-3 0  9996
2 45228  53.0530 173.8998 0001592  69.1625 290.9535 15.06405003160453
1 45228U 20012BC  23005.19136991  .00002284  00000-0  17212-3 0  9997
2 45228  53.0531 171.8149 0001636  68.8967 291.2196 15.06412898160529
1 45228U 20012BC  23005.19136991  .00002284  00000-0  17212-3 0  9997
2 45228  53.0531 171.8149 0001636  68.8967 291.2196 15.06412898159695
1 45228U 20012BC  23005.72214846  .00000734  00000-0  68178-4 0  9998
2 45228  53.0528 169.4317 0001629  71.4820 288.6346 15.06405285160603
1 45228U 20012BC  23005.72214846  .00000734  00000-0  68178-4 0  9998
2 45228  53.0528 169.4317 0001629  71.4820 288.6346 15.06405285159779
1 45228U 20012BC  23006.58465505 -.00000699  00000-0 -28011-4 0  9997
2 45228  53.0526 165.5593 0001667  70.9502 289.1667 15.06404550160737
1 45228U 20012BC  23007.44716059 -.00000268  00000-0  92198-6 0  9996
2 45228  53.0527 161.6872 0001601  68.6697 291.4463 15.06401499160034
1 45228U 20012BC  23007.57986058 -.00001309  00000-0 -69013-4 0  9994
2 45228  53.0526 161.0919 0001328  64.2012 295.9114 15.06393229160884
1 45228U 20012BC  23007.57986058 -.00001309  00000-0 -69013-4 0  9994
2 45228  53.0526 161.0919 0001328  64.2012 295.9114 15.06393229160053
1 45228U 20012BC  23008.11064411  .00001083  00000-0  91634-4 0  9996
2 45228  53.0529 158.7090 0001452  69.3471 290.7673 15.06377850160136
1 45228U 20012BC  23008.50871644 -.00000871  00000-0 -39577-4 0  9997
2 45228  53.0555 156.9190 0001311  47.9174 312.1926 15.06397342161029
1 45228U 20012BC  23008.50871644 -.00000871  00000-0 -39577-4 0  9997
2 45228  53.0555 156.9190 0001311  47.9174 312.1926 15.06397342160196
1 45228U 20012BC  23009.10581542 -.00008584  00000-0 -55733-3 0  9999
2 45228  53.0538 154.2403 0001085  55.2118 304.8973 15.06447358161119
1 45228U 20012BC  23009.10581542 -.00008584  00000-0 -55733-3 0  9999
2 45228  53.0538 154.2403 0001085  55.2118 304.8973 15.06447358160286
1 45228U 20012BC  23010.10104047  .00001135  00000-0  95064-4 0  9997
2 45228  53.0533 149.7743 0001260  52.0655 308.0447 15.06392552160437
1 45228U 20012BC  23010.49912418  .00000261  00000-0  36404-4 0  9990
2 45228  53.0520 147.9871 0001793  61.6034 298.5136 15.06395503161329
1 45228U 20012BC  23010.63180880  .00001447  00000-0  11598-3 0  9999
2 45228  53.0531 147.3911 0001355  57.0033 303.1086 15.06403624161345
1 45228U 20012BC  23010.63180880  .00001447  00000-0  11598-3 0  9999
2 45228  53.0531 147.3911 0001355  57.0033 303.1086 15.06403624160513
1 45228U 20012BC  23011.62700674  .00000909  00000-0  79896-4 0  9996
2 45228  53.0523 142.9241 0001753  52.6358 307.4790 15.06404663161495
1 45228U 20012BC  23011.75970559  .00000077  00000-0  24082-4 0  9994
2 45228  53.0553 142.3325 0001974  39.9989 320.1145 15.06401969161513
1 45228U 20012BC  23011.75970559  .00000077  00000-0  24082-4 0  9994
2 45228  53.0553 142.3325 0001974  39.9989 320.1145 15.06401969160680
1 45228U 20012BC  23012.75489037  .00000780  00000-0  71248-4 0  9998
2 45228  53.0542 137.8598 0001475  38.2562 321.8532 15.06416987161667
1 45228U 20012BC  23012.75489037  .00000780  00000-0  71248-4 0  9998
2 45228  53.0542 137.8598 0001475  38.2562 321.8532 15.06416987160835
1 45228U 20012BC  23013.55109165 -.00002093  00000-0 -12168-3 0  9994
2 45228  53.0543 134.2900 0002321  33.8339 326.2798 15.06374724160956
1 45228U 20012BC  23013.61743579 -.00001731  00000-0 -97378-4 0  9999
2 45228  53.0532 133.9892 0001782  59.5742 300.5423 15.06377091161796
1 45228U 20012BC  23013.75012915 -.00001462  00000-0 -79287-4 0  9997
2 45228  53.0536 133.3926 0001813  60.3378 299.7791 15.06379515161815
1 45228U 20012BC  23013.75012915 -.00001462  00000-0 -79287-4 0  9997
2 45228  53.0536 133.3926 0001813  60.3378 299.7791 15.06379515160982
1 45228U 20012BC  23014.47994039 -.00000845  00000-0 -37848-4 0  9994
2 45228  53.0530 130.1146 0001762  78.7873 281.3314 15.06395035161097
1 45228U 20012BC  23015.01072463  .00003305  00000-0  24081-3 0  9999
2 45228  53.0534 127.7338 0001736  70.7389 289.3788 15.06378930161178
1 45228U 20012BC  23015.54148277 -.00013739  00000-0 -90377-3 0  9999
2 45228  53.0515 125.3510 0001051 113.9667 246.1432 15.06459769161258
1 45228U 20012BC  23015.60784650  .00005839  00000-0  41060-3 0  9992
2 45228  53.0537 125.0537 0001654  66.3788 293.7375 15.06398249162094
1 45228U 20012BC  23015.74052385 -.00008398  00000-0 -54514-3 0  9993
2 45228  53.0528 124.4555 0001296  75.6773 284.4360 15.06425837162114
1 45228U 20012BC  23015.74052385 -.00008398  00000-0 -54514-3 0  9993
2 45228  53.0528 124.4555 0001296  75.6773 284.4360 15.06425837161281
1 45228U 20012BC  23016.47036156  .00002803  00000-0  20701-3 0  9996
2 45228  53.0532 121.1819 0001423  77.4544 282.6604 15.06395529161398
1 45228U 20012BC  23016.60304990  .00004782  00000-0  33964-3 0  9998
2 45228  53.0531 120.5852 0001690  71.2993 288.8180 15.06409229162248
1 45228U 20012BC  23016.60304990  .00004782  00000-0  33964-3 0  9998
2 45228  53.0531 120.5852 0001690  71.2993 288.8180 15.06409229161416
1 45228U 20012BC  23017.06748692 -.00000016  00000-0  17822-4 0  9993
2 45228  53.0529 118.5042 0001377  85.8871 274.2275 15.06385792161488
1 45228U 20012BC  23017.53192087 -.00000391  00000-0 -73501-5 0  9990
2 45228  53.0537 116.4176 0001106  83.6860 276.4255 15.06383453162380
1 45228U 20012BC  23017.59826455 -.00000608  00000-0 -21922-4 0  9999
2 45228  53.0536 116.1165 0001401  94.0473 266.0676 15.06390968162390
1 45228U 20012BC  23018.26173195  .00001691  00000-0  13240-3 0  9994
2 45228  53.0528 113.1398 0001476  90.2341 269.8817 15.06403062161667
1 45228U 20012BC  23018.52711354  .00005247  00000-0  37077-3 0  9993
2 45228  53.0527 111.9462 0001447 106.9314 253.1834 15.06413649162531
1 45228U 20012BC  23018.52711354  .00005247  00000-0  37077-3 0  9993
2 45228  53.0527 111.9462 0001447 106.9314 253.1834 15.06413649161709
1 45228U 20012BC  23019.05789374  .00005969  00000-0  41918-3 0  9999
2 45228  53.0520 109.5660 0001585  89.2025 270.9146 15.06406903161786
1 45228U 20012BC  23019.32328513  .00003474  00000-0  25202-3 0  9990
2 45228  53.0529 108.3748 0001527  88.0346 272.0818 15.06397842161823
1 45228U 20012BC  23019.45597636  .00004281  00000-0  30609-3 0  9992
2 45228  53.0525 107.7784 0001526 100.6367 259.4794 15.06402238162677
1 45228U 20012BC  23020.51752375  .00002818  00000-0  20800-3 0  9990
2 45228  53.0534 103.0149 0001344  87.1642 272.9501 15.06403442162836
1 45228U 20012BC  23020.51752375  .00002818  00000-0  20800-3 0  9990
2 45228  53.0534 103.0149 0001344  87.1642 272.9501 15.06403442162005
1 45228U 20012BC  23021.44638363  .00002406  00000-0  18036-3 0  9994
2 45228  53.0536  98.8451 0001457  99.6026 260.5128 15.06397828162146
1 45228U 20012BC  23021.64541758  .00005365  00000-0  37867-3 0  9997
2 45228  53.0530  97.9499 0001280  95.3304 264.7831 15.06410804162178
1 45228U 20012BC  23022.57427497  .00006410  00000-0  44872-3 0  9999
2 45228  53.0531  93.7803 0001270  82.4788 277.6345 15.06411220162316
1 45228U 20012BC  23023.17140503  .00001265  00000-0  10382-3 0  9998
2 45228  53.0523  91.0995 0001497  70.8965 289.2186 15.06393247162409
1 45228U 20012BC  23024.43199386  .00014021  00000-0  95790-3 0  9991
2 45228  53.0524  85.4399 0001556  63.5476 296.5672 15.06415841162593
1 45228U 20012BC  23025.09546242  .00004603  00000-0  32763-3 0  9997
2 45228  53.0524  82.4620 0001477  70.2708 289.8440 15.06405515162698
1 45228U 20012BC  23025.55989148  .00003633  00000-0  26262-3 0  9993
2 45228  53.0526  80.3757 0001467  70.1400 289.9747 15.06403190163593
1 45228U 20012BC  23025.55989148  .00003633  00000-0  26262-3 0  9993
2 45228  53.0526  80.3757 0001467  70.1400 289.9747 15.06403190162761
1 45228U 20012BC  23026.48874344  .00004714  00000-0  33503-3 0  9994
2 45228  53.0532  76.2055 0001571  81.7659 278.3508 15.06411423163736
1 45228U 20012BC  23026.82047920  .00002439  00000-0  18257-3 0  9995
2 45228  53.0526  74.7154 0001566  70.7124 289.4034 15.06404188162951
1 45228U 20012BC  23027.48395286  .00000949  00000-0  82601-4 0  9998
2 45228  53.0543  71.7385 0001618  83.3618 276.7555 15.06395540163880
1 45228U 20012BC  23027.48395286  .00000949  00000-0  82601-4 0  9998
2 45228  53.0543  71.7385 0001618  83.3618 276.7555 15.06395540163059
1 45228U 20012BC  23027.81568709  .00000315  00000-0  40031-4 0  9995
2 45228  53.0540  70.2466 0001526  78.6776 281.4384 15.06395507163933
1 45228U 20012BC  23028.47915511  .00000782  00000-0  71386-4 0  9990
2 45228  53.0544  67.2704 0001565  88.9075 271.2093 15.06400413164036
1 45228U 20012BC  23028.81088976  .00000402  00000-0  45857-4 0  9997
2 45228  53.0550  65.7818 0001690  77.4857 282.6321 15.06400688164081
1 45228U 20012BC  23028.81088976  .00000402  00000-0  45857-4 0  9997
2 45228  53.0550  65.7818 0001690  77.4857 282.6321 15.06400688163259
1 45228U 20012BC  23029.80609356  .00001755  00000-0  13665-3 0  9991
2 45228  53.0538  61.3126 0001484  82.7193 277.3965 15.06401120164238
1 45228U 20012BC  23030.07148408  .00001842  00000-0  14254-3 0  9990
2 45228  53.0539  60.1220 0001477  87.8166 272.2992 15.06396525163447
1 45228U 20012BC  23030.46956241  .00001509  00000-0  12018-3 0  9991
2 45228  53.0531  58.3341 0001371  86.3689 273.7457 15.06401098164332
1 45228U 20012BC  23031.46476717  .00000881  00000-0  78039-4 0  9995
2 45228  53.0534  53.8662 0001418  88.1434 271.9718 15.06399291164488
1 45228U 20012BC  23031.46476717  .00000881  00000-0  78039-4 0  9995
2 45228  53.0534  53.8662 0001418  88.1434 271.9718 15.06399291163656
